satname,norad_id,inclination_deg,eccentricity,mean_motion_rev_per_day,perigee_km,apogee_km,l1,l2
STARLINK-1284,45390,53.0537,0.000149,15.20181681,504.2664900949512,506.31775197301795,1 45390U 20019AG  26011.66667824  .01180231  00000+0  49444-1 0  9999,2 45390  53.0537  42.2844 0001490  81.4386 295.5110 15.20181681  5690
STARLINK-1297,45395,53.0544,0.0001581,15.17704971,511.68924497556327,513.868152519507,1 45395U 20019AM  26011.66667824  .01682979  00000+0  75510-1 0  9993,2 45395  53.0544  42.3951 0001581  74.1268  45.1384 15.17704971  5817
STARLINK-1307,45397,53.0566,0.0001421,15.22094141,498.5477326477403,500.5023642019023,1 45397U 20019AP  26011.66667824  .01077054  00000+0  43001-1 0  9997,2 45397  53.0566  42.1750 0001421  74.6857 196.5743 15.22094141  5749
STARLINK-1255,45399,53.0483,0.0005715,15.42565749,434.6443102840931,442.4357721421984,1 45399U 20019AR  26011.30310233  .00028164  00000+0  64516-3 0  9992,2 45399  53.0483  16.7101 0005715  47.9480 312.2010 15.42565749321554
STARLINK-1260,45404,53.0559,0.0001651,15.06412888,546.0286898305694,548.3154268816397,1 45404U 20019AW  26011.45956498  .00019516  00000+0  13250-2 0  9993,2 45404  53.0559  33.5342 0001651  91.2267 268.8911 15.06412888321235
STARLINK-1263,45405,53.0539,0.0001264,15.06408889,546.3089539533312,548.0596751816538,1 45405U 20019AX  26011.31211200  .00007816  00000+0  54288-3 0  9991,2 45405  53.0539  34.1966 0001264  89.8139 270.2995 15.06408889321217
STARLINK-1265,45406,53.0544,0.0001547,15.06404486,546.1264597335439,548.2691583234564,1 45406U 20019AY  26011.45217104  .00002608  00000+0  19387-3 0  9991,2 45406  53.0544  33.5687 0001547  87.6907 272.4260 15.06404486321230
STARLINK-1278,45408,53.0503,0.0004207,15.44292515,430.59203250572773,436.3233082613888,1 45408U 20019BA  26011.32703773  .00021327  00000+0  46373-3 0  9995,2 45408  53.0503  45.6194 0004207 309.6503  50.4131 15.44292515321061
STARLINK-1296,45412,53.0619,0.0001243,15.08684848,539.3577157148584,541.0776186851244,1 45412U 20019BE  26011.66667824  .00012389  00000+0  79844-3 0  9990,2 45412  53.0619  32.5920 0001243  77.9308 352.5531 15.08684848  5817
STARLINK-1298,45413,53.0435,0.0007293,15.70672475,352.0620055337131,361.88583832443874,1 45413U 20019BF  26011.66667824  .00215609  00000+0  16685-2 0  9994,2 45413  53.0435 341.0798 0007293  94.7015  39.9164 15.70672475  5975
STARLINK-1309,45414,53.0554,0.0001392,15.0640015,546.2470897546491,548.1751066651914,1 45414U 20019BG  26011.47060302  .00001285  00000+0  10516-3 0  9993,2 45414  53.0554  33.4863 0001392  90.0909 270.0240 15.06400150321228
STARLINK-1316,45415,53.0553,0.000138,15.06401939,546.2499179080232,548.1613124698151,1 45415U 20019BH  26011.56274951  .00000500  00000+0  52481-4 0  9998,2 45415  53.0553  33.0706 0001380  98.1951 261.9194 15.06401939321271
STARLINK-1318,45416,53.0445,0.0005095,15.77257858,334.7918691876621,341.63583070375626,1 45416U 20019BJ  26011.66667824  .00165529  00000+0  97207-3 0  9992,2 45416  53.0445 328.8908 0005095  90.1960 161.9101 15.77257858  5925
STARLINK-1286,45417,53.052,0.0001975,15.44573011,431.2878567572625,433.97811090087544,1 45417U 20019BK  26011.48349479  .00030925  00000+0  66134-3 0  9992,2 45417  53.0520  44.5705 0001975 347.7388  12.3570 15.44573011321369
STARLINK-1308,45419,53.0555,0.0001096,15.20527088,503.4953332073883,505.0039523594869,1 45419U 20019BM  26011.66667824  .01219036  00000+0  50415-1 0  9997,2 45419  53.0555  62.2151 0001096  75.9860 144.1225 15.20527088  5648
STARLINK-1329,45531,53.056,0.0005523,15.44988196,427.65184175094964,435.1736704115174,1 45531U 20025A   26011.26337035  .00024850  00000+0  52597-3 0  9995,2 45531  53.0560 356.9885 0005523  48.2132 311.9345 15.44988196316548
STARLINK-1338,45532,53.0567,0.0007516,15.43120654,431.7835759026839,442.02794818258644,1 45532U 20025B   26011.60137806 -.00033355  00000+0 -73512-3 0  9990,2 45532  53.0567 358.2386 0007516  35.4186 324.7317 15.43120654316556
STARLINK-1350,45535,53.0738,0.0002229,15.34513362,460.84157700470587,463.8910733870789,1 45535U 20025E   26011.50544804  .00013507  00000+0  40870-3 0  9998,2 45535  53.0738 301.3730 0002229 101.2716 258.8536 15.34513362317371
STARLINK-1362,45538,53.0564,0.0001444,15.06400025,546.2114609961764,548.211501637581,1 45538U 20025H   26011.27703478  .00000793  00000+0  72148-4 0  9996,2 45538  53.0564   4.0733 0001444  90.0094 270.1061 15.06400025316440
STARLINK-1368,45540,53.0563,0.0001588,15.06396651,546.1220751789897,548.3215691409068,1 45540U 20025K   26011.34804905  .00000834  00000+0  74883-4 0  9998,2 45540  53.0563   4.0377 0001588 100.4961 259.6207 15.06396651316447
STARLINK-1371,45542,53.055,0.0001292,15.38811625,448.7401508564608,450.5044438588975,1 45542U 20025M   26011.66667824  .00060173  00000+0  15426-2 0  9990,2 45542  53.0550   0.1148 0001292  78.5270 206.9499 15.38811625  5742
STARLINK-1372,45543,53.0575,0.0001519,15.06399076,546.162428990524,548.266350742766,1 45543U 20025N   26011.35541842  .00001002  00000+0  86141-4 0  9998,2 45543  53.0575   4.0019 0001519  97.7353 262.3808 15.06399076315545
STARLINK-1373,45544,53.0537,0.000147,15.40010113,445.0762823076284,447.08260194161267,1 45544U 20025P   26011.66667824  .00042457  00000+0  10519-2 0  9995,2 45544  53.0537   0.6181 0001470  89.0946 359.9367 15.40010113  5745
STARLINK-1294,45551,53.0399,0.0003687,15.75594691,340.46139049504654,345.41751227029636,1 45551U 20025W   26010.99579873  .00138670  00000+0  87993-3 0  9998,2 45551  53.0399 267.7978 0003687 180.6186 179.4829 15.75594691317778
STARLINK-1325,45554,53.0425,0.0008724,15.92702224,288.90318987430237,300.5459987840886,1 45554U 20025Z   26011.66667824  .00447916  89140-4  12759-2 0  9990,2 45554  53.0425 252.8511 0008724 150.6077 318.3858 15.92702224  6023
STARLINK-1327,45555,53.0544,0.0002031,15.43027933,435.79458061782134,438.56296188410306,1 45555U 20025AA  26011.66667824  .00118935  00000+0  26227-2 0  9995,2 45555  53.0544 339.5183 0002031  97.1189 343.2036 15.43027933  5698
STARLINK-1356,45564,53.0552,5.65e-05,15.12374816,528.5696692276915,529.3501711796744,1 45564U 20025AK  26011.66667824  .01686199  00000+0  87860-1 0  9997,2 45564  53.0552 342.5216 0000565 128.2584 193.8633 15.12374816  5809
STARLINK-1357,45565,53.0595,0.0005669,15.45115578,427.17836864872515,434.89861181955257,1 45565U 20025AL  26011.24848903  .00030142  00000+0  63288-3 0  9991,2 45565  53.0595 313.4340 0005669  81.2614 278.9034 15.45115578317152
STARLINK-1361,45567,53.0541,0.0001482,15.12088278,528.808719837939,530.8562419920818,1 45567U 20025AN  26011.66667824  .00006215  00000+0  37376-3 0  9993,2 45567  53.0541 342.5172 0001482 102.4002 122.3586 15.12088278  5694
STARLINK-1363,45568,53.0501,0.0008098,15.5419515,399.00066460975995,409.98581254415967,1 45568U 20025AP  26011.27337704  .00146291  00000+0  21717-2 0  9992,2 45568  53.0501 320.8246 0008098  29.4437 330.7027 15.54195150317046
STARLINK-1366,45569,53.0503,0.0011889,15.54007201,396.975590597428,413.1046291292614,1 45569U 20025AQ  26011.66667824  .00138363  00000+0  20675-2 0  9998,2 45569  53.0503 319.5225 0011889  58.0682 344.6529 15.54007201  5610
STARLINK-1376,45570,53.1206,0.0001888,15.21201315,500.91687383940007,503.51489508857503,1 45570U 20025AR  26011.66667824  .01406579  00000+0  57148-1 0  9992,2 45570  53.1206 342.2107 0001888  66.5179 350.3756 15.21201315  5801
STARLINK-1320,45572,53.0536,0.0007091,15.55539837,395.7770527296252,405.390634630131,1 45572U 20025AT  26011.42647774  .00046282  00000+0  66723-3 0  9991,2 45572  53.0536 265.6252 0007091 136.0879 224.0696 15.55539837317850
STARLINK-1321,45573,53.0543,0.0002144,15.39530951,446.03192775910975,448.95875890793104,1 45573U 20025AU  26011.58569805  .00103403  00000+0  25674-2 0  9995,2 45573  53.0543 329.8424 0002144  84.0443 276.0805 15.39530951316641
STARLINK-1328,45576,53.0391,0.0004976,16.19573692,217.42600813298213,223.9931802635292,1 45576U 20025AX  26011.86205709  .01690967  11797-4  87947-3 0  9998,2 45576  53.0391 266.5084 0004976 225.0128 135.0507 16.19573692317862
STARLINK-1331,45578,53.0557,0.0001463,15.06414957,546.1525454792354,548.1788890543075,1 45578U 20025AZ  26011.59408281  .00004636  00000+0  32980-3 0  9998,2 45578  53.0557 332.9303 0001463  90.8781 269.2376 15.06414957316913
STARLINK-1333,45580,53.104,0.0001881,15.18002431,510.5824516826315,513.1744755000345,1 45580U 20025BB  26011.66667824  .01401762  00000+0  62477-1 0  9993,2 45580  53.1040 342.3630 0001881  86.5069  45.5274 15.18002431  5546
STARLINK-1335,45581,53.0542,0.0001596,15.064008,546.1038208160571,548.3143912931091,1 45581U 20025BC  26011.27340009 -.00000184  00000+0  65475-5 0  9992,2 45581  53.0542 334.3705 0001596  94.4584 265.6588 15.06400800316851
STARLINK-1337,45582,53.0547,0.0001491,15.12099643,528.7678940705982,530.8278402479855,1 45582U 20025BD  26011.66667824  .00029316  00000+0  16934-2 0  9993,2 45582  53.0547 332.5379 0001491 113.9796 136.0970 15.12099643  5802
STARLINK-1347,45586,53.052,0.0006023,15.43773529,430.8806571912537,439.08774298888056,1 45586U 20025BH  26011.23259581  .00093329  00000+0  20147-2 0  9993,2 45586  53.0520 304.4974 0006023  91.2489 268.9207 15.43773529317269
STARLINK-1364,45589,53.0546,0.000158,15.12121696,528.6392596894702,530.8221458835515,1 45589U 20025BL  26011.66667824  .00020161  00000+0  11707-2 0  9992,2 45589  53.0546 332.5016 0001580  94.3938 153.7320 15.12121696  5691
STARLINK-1365,45590,53.0551,0.0001256,15.11837292,529.7292687257204,531.4647427079562,1 45590U 20025BM  26011.66667824  .01004325  00000+0  53976-1 0  9992,2 45590  53.0551   2.5212 0001256  86.3105  64.9227 15.11837292  5816
STARLINK-1443,45660,53.055,0.0001361,15.06402611,546.2610167612711,548.1460944605078,1 45660U 20035D   26011.56551350  .00000395  00000+0  45403-4 0  9997,2 45660  53.0550 323.0583 0001361  84.9666 275.1479 15.06402611310123
